[{"OBJECT_NAME":"STARLINK-34815","OBJECT_ID":"2025-167X","EPOCH":"2026-03-09T04:34:40.652256","MEAN_MOTION":15.30192544,"ECCENTRICITY":0.00013054,"INCLINATION":53.1601,"RA_OF_ASC_NODE":28.9619,"ARG_OF_PERICENTER":81.9313,"MEAN_ANOMALY":278.1836,"EPHEMERIS_TYPE":0,"CLASSIFICATION_TYPE":"U","NORAD_CAT_ID":65099,"ELEMENT_SET_NO":999,"REV_AT_EPOCH":3340,"BSTAR":0.00054021084,"MEAN_MOTION_DOT":0.0001567,"MEAN_MOTION_DDOT":0},{"OBJECT_NAME":"CZ-6A DEB","OBJECT_ID":"2022-151QV","EPOCH":"2026-03-09T04:36:08.895168","MEAN_MOTION":15.24642942,"ECCENTRICITY":0.00273347,"INCLINATION":98.639,"RA_OF_ASC_NODE":154.2763,"ARG_OF_PERICENTER":174.5721,"MEAN_ANOMALY":185.5815,"EPHEMERIS_TYPE":0,"CLASSIFICATION_TYPE":"U","NORAD_CAT_ID":54908,"ELEMENT_SET_NO":999,"REV_AT_EPOCH":17373,"BSTAR":0.0098290719,"MEAN_MOTION_DOT":0.00253193,"MEAN_MOTION_DDOT":0}]
